[{"OBJECT_NAME":"ZHUHAI-1 02 (CAS-4B)","OBJECT_ID":"2017-034B","EPOCH":"2022-08-19T04:41:35.583936","MEAN_MOTION":15.12274449,"ECCENTRICITY":0.0010481,"INCLINATION":43.0186,"RA_OF_ASC_NODE":346.7667,"ARG_OF_PERICENTER":320.7059,"MEAN_ANOMALY":109.0578,"EPHEMERIS_TYPE":0,"CLASSIFICATION_TYPE":"U","NORAD_CAT_ID":42759,"ELEMENT_SET_NO":999,"REV_AT_EPOCH":28585,"BSTAR":0.00018132,"MEAN_MOTION_DOT":2.971e-5,"MEAN_MOTION_DDOT":0},{"OBJECT_NAME":"ZHUHAI-1 01 (CAS-4A)","OBJECT_ID":"2017-034D","EPOCH":"2022-08-19T01:56:54.000384","MEAN_MOTION":15.12361217,"ECCENTRICITY":0.0010797,"INCLINATION":43.0188,"RA_OF_ASC_NODE":346.1382,"ARG_OF_PERICENTER":321.5243,"MEAN_ANOMALY":29.5605,"EPHEMERIS_TYPE":0,"CLASSIFICATION_TYPE":"U","NORAD_CAT_ID":42761,"ELEMENT_SET_NO":999,"REV_AT_EPOCH":28583,"BSTAR":0.00019078,"MEAN_MOTION_DOT":3.146e-5,"MEAN_MOTION_DDOT":0},{"OBJECT_NAME":"UCLSAT","OBJECT_ID":"2017-036A","EPOCH":"2022-08-18T21:32:24.301536","MEAN_MOTION":15.30992057,"ECCENTRICITY":0.0010984,"INCLINATION":97.1929,"RA_OF_ASC_NODE":271.6419,"ARG_OF_PERICENTER":101.3479,"MEAN_ANOMALY":258.8997,"EPHEMERIS_TYPE":0,"CLASSIFICATION_TYPE":"U","NORAD_CAT_ID":42765,"ELEMENT_SET_NO":999,"REV_AT_EPOCH":28740,"BSTAR":0.00049451,"MEAN_MOTION_DOT":0.00014772,"MEAN_MOTION_DDOT":0},{"OBJECT_NAME":"NIUSAT","OBJECT_ID":"2017-036B","EPOCH":"2022-08-18T12:37:50.568672","MEAN_MOTION":15.27229483,"ECCENTRICITY":0.0015244,"INCLINATION":97.1982,"RA_OF_ASC_NODE":266.1519,"ARG_OF_PERICENTER":105.9484,"MEAN_ANOMALY":254.3437,"EPHEMERIS_TYPE":0,"CLASSIFICATION_TYPE":"U","NORAD_CAT_ID":42766,"ELEMENT_SET_NO":999,"REV_AT_EPOCH":28627,"BSTAR":0.00035322,"MEAN_MOTION_DOT":9.389e-5,"MEAN_MOTION_DDOT":0},{"OBJECT_NAME":"LITUANICASAT-2","OBJECT_ID":"2017-036D","EPOCH":"2022-08-19T02:24:20.646144","MEAN_MOTION":15.38323794,"ECCENTRICITY":0.0011512,"INCLINATION":97.201,"RA_OF_ASC_NODE":275.2054,"ARG_OF_PERICENTER":85.9623,"MEAN_ANOMALY":274.2938,"EPHEMERIS_TYPE":0,"CLASSIFICATION_TYPE":"U","NORAD_CAT_ID":42768,"ELEMENT_SET_NO":999,"REV_AT_EPOCH":28687,"BSTAR":0.00093842,"MEAN_MOTION_DOT":0.00035564,"MEAN_MOTION_DDOT":0},{"OBJECT_NAME":"AALTO-1","OBJECT_ID":"2017-036L","EPOCH":"2022-08-19T02:55:56.904096","MEAN_MOTION":15.26321237,"ECCENTRICITY":0.0014222,"INCLINATION":97.1937,"RA_OF_ASC_NODE":266.5382,"ARG_OF_PERICENTER":103.4737,"MEAN_ANOMALY":256.8088,"EPHEMERIS_TYPE":0,"CLASSIFICATION_TYPE":"U","NORAD_CAT_ID":42775,"ELEMENT_SET_NO":999,"REV_AT_EPOCH":28633,"BSTAR":0.00032645,"MEAN_MOTION_DOT":8.431e-5,"MEAN_MOTION_DDOT":0},{"OBJECT_NAME":"URSA MAIOR","OBJECT_ID":"2017-036M","EPOCH":"2022-08-18T21:10:13.788192","MEAN_MOTION":15.2695259,"ECCENTRICITY":0.0013847,"INCLINATION":97.1951,"RA_OF_ASC_NODE":267.1005,"ARG_OF_PERICENTER":103.1659,"MEAN_ANOMALY":257.1126,"EPHEMERIS_TYPE":0,"CLASSIFICATION_TYPE":"U","NORAD_CAT_ID":42776,"ELEMENT_SET_NO":999,"REV_AT_EPOCH":28633,"BSTAR":0.00035386,"MEAN_MOTION_DOT":9.321e-5,"MEAN_MOTION_DDOT":0},{"OBJECT_NAME":"COMPASS 2","OBJECT_ID":"2017-036N","EPOCH":"2022-08-18T08:30:07.219008","MEAN_MOTION":15.34367232,"ECCENTRICITY":0.0011067,"INCLINATION":97.2001,"RA_OF_ASC_NODE":273.5211,"ARG_OF_PERICENTER":92.2795,"MEAN_ANOMALY":267.9715,"EPHEMERIS_TYPE":0,"CLASSIFICATION_TYPE":"U","NORAD_CAT_ID":42777,"ELEMENT_SET_NO":999,"REV_AT_EPOCH":28663,"BSTAR":0.00071167,"MEAN_MOTION_DOT":0.00023697,"MEAN_MOTION_DDOT":0},{"OBJECT_NAME":"MAX VALIER SAT","OBJECT_ID":"2017-036P","EPOCH":"2022-08-18T19:43:30.757728","MEAN_MOTION":15.27835919,"ECCENTRICITY":0.0012605,"INCLINATION":97.2009,"RA_OF_ASC_NODE":269.799,"ARG_OF_PERICENTER":103.9068,"MEAN_ANOMALY":256.3575,"EPHEMERIS_TYPE":0,"CLASSIFICATION_TYPE":"U","NORAD_CAT_ID":42778,"ELEMENT_SET_NO":999,"REV_AT_EPOCH":28642,"BSTAR":0.00036158,"MEAN_MOTION_DOT":9.782e-5,"MEAN_MOTION_DDOT":0},{"OBJECT_NAME":"PEGASUS","OBJECT_ID":"2017-036V","EPOCH":"2022-08-19T02:52:04.742112","MEAN_MOTION":15.30012765,"ECCENTRICITY":0.0011777,"INCLINATION":97.195,"RA_OF_ASC_NODE":271.0529,"ARG_OF_PERICENTER":103.4353,"MEAN_ANOMALY":256.8202,"EPHEMERIS_TYPE":0,"CLASSIFICATION_TYPE":"U","NORAD_CAT_ID":42784,"ELEMENT_SET_NO":999,"REV_AT_EPOCH":28659,"BSTAR":0.00050143,"MEAN_MOTION_DOT":0.00014536,"MEAN_MOTION_DDOT":0},{"OBJECT_NAME":"NUDTSAT","OBJECT_ID":"2017-036Y","EPOCH":"2022-08-18T23:01:36.271776","MEAN_MOTION":15.35648186,"ECCENTRICITY":0.0010329,"INCLINATION":97.1977,"RA_OF_ASC_NODE":275.4963,"ARG_OF_PERICENTER":91.4213,"MEAN_ANOMALY":268.8216,"EPHEMERIS_TYPE":0,"CLASSIFICATION_TYPE":"U","NORAD_CAT_ID":42787,"ELEMENT_SET_NO":999,"REV_AT_EPOCH":28668,"BSTAR":0.00048836,"MEAN_MOTION_DOT":0.00016894,"MEAN_MOTION_DDOT":0},{"OBJECT_NAME":"SUCHAI","OBJECT_ID":"2017-036Z","EPOCH":"2022-08-19T02:28:42.273120","MEAN_MOTION":15.32042494,"ECCENTRICITY":0.001101,"INCLINATION":97.1955,"RA_OF_ASC_NODE":272.8488,"ARG_OF_PERICENTER":98.9421,"MEAN_ANOMALY":261.3068,"EPHEMERIS_TYPE":0,"CLASSIFICATION_TYPE":"U","NORAD_CAT_ID":42788,"ELEMENT_SET_NO":999,"REV_AT_EPOCH":28677,"BSTAR":0.00055798,"MEAN_MOTION_DOT":0.00017238,"MEAN_MOTION_DDOT":0},{"OBJECT_NAME":"SKCUBE","OBJECT_ID":"2017-036AA","EPOCH":"2022-08-18T17:47:14.926272","MEAN_MOTION":15.31139386,"ECCENTRICITY":0.0011078,"INCLINATION":97.1952,"RA_OF_ASC_NODE":271.8882,"ARG_OF_PERICENTER":100.9192,"MEAN_ANOMALY":259.3297,"EPHEMERIS_TYPE":0,"CLASSIFICATION_TYPE":"U","NORAD_CAT_ID":42789,"ELEMENT_SET_NO":999,"REV_AT_EPOCH":28660,"BSTAR":0.00045489,"MEAN_MOTION_DOT":0.00013644,"MEAN_MOTION_DDOT":0},{"OBJECT_NAME":"VZLUSAT-1","OBJECT_ID":"2017-036AB","EPOCH":"2022-08-18T09:17:16.059552","MEAN_MOTION":15.35451131,"ECCENTRICITY":0.0009739,"INCLINATION":97.1975,"RA_OF_ASC_NODE":274.8906,"ARG_OF_PERICENTER":94.9512,"MEAN_ANOMALY":265.2844,"EPHEMERIS_TYPE":0,"CLASSIFICATION_TYPE":"U","NORAD_CAT_ID":42790,"ELEMENT_SET_NO":999,"REV_AT_EPOCH":28674,"BSTAR":0.00071235,"MEAN_MOTION_DOT":0.00024543,"MEAN_MOTION_DDOT":0},{"OBJECT_NAME":"ROBUSTA-1B","OBJECT_ID":"2017-036AD","EPOCH":"2022-08-18T08:20:33.072000","MEAN_MOTION":15.31743803,"ECCENTRICITY":0.0010578,"INCLINATION":97.1946,"RA_OF_ASC_NODE":272.1169,"ARG_OF_PERICENTER":102.1121,"MEAN_ANOMALY":258.1307,"EPHEMERIS_TYPE":0,"CLASSIFICATION_TYPE":"U","NORAD_CAT_ID":42792,"ELEMENT_SET_NO":999,"REV_AT_EPOCH":28659,"BSTAR":0.00055218,"MEAN_MOTION_DOT":0.00016897,"MEAN_MOTION_DDOT":0},{"OBJECT_NAME":"D-SAT","OBJECT_ID":"2017-036AF","EPOCH":"2022-08-18T19:40:37.732224","MEAN_MOTION":14.92883047,"ECCENTRICITY":0.0121125,"INCLINATION":97.4531,"RA_OF_ASC_NODE":232.9525,"ARG_OF_PERICENTER":235.9129,"MEAN_ANOMALY":123.055,"EPHEMERIS_TYPE":0,"CLASSIFICATION_TYPE":"U","NORAD_CAT_ID":42794,"ELEMENT_SET_NO":999,"REV_AT_EPOCH":28078,"BSTAR":0.00015719,"MEAN_MOTION_DOT":1.816e-5,"MEAN_MOTION_DDOT":0}]