ZHUHAI-1 02 (CAS-4B)    
1 42759U 17034B   22231.19555074  .00002971  00000+0  18132-3 0  9994
2 42759  43.0186 346.7667 0010481 320.7059 109.0578 15.12274449285857
ZHUHAI-1 01 (CAS-4A)    
1 42761U 17034D   22231.08118056  .00003146  00000+0  19078-3 0  9995
2 42761  43.0188 346.1382 0010797 321.5243  29.5605 15.12361217285839
UCLSAT                  
1 42765U 17036A   22230.89750349  .00014772  00000+0  49451-3 0  9991
2 42765  97.1929 271.6419 0010984 101.3479 258.8997 15.30992057287400
NIUSAT                  
1 42766U 17036B   22230.52627973  .00009389  00000+0  35322-3 0  9998
2 42766  97.1982 266.1519 0015244 105.9484 254.3437 15.27229483286276
LITUANICASAT-2          
1 42768U 17036D   22231.10023896  .00035564  00000+0  93842-3 0  9994
2 42768  97.2010 275.2054 0011512  85.9623 274.2938 15.38323794286877
AALTO-1                 
1 42775U 17036L   22231.12218639  .00008431  00000+0  32645-3 0  9992
2 42775  97.1937 266.5382 0014222 103.4737 256.8088 15.26321237286332
URSA MAIOR              
1 42776U 17036M   22230.88210403  .00009321  00000+0  35386-3 0  9990
2 42776  97.1951 267.1005 0013847 103.1659 257.1126 15.26952590286339
COMPASS 2               
1 42777U 17036N   22230.35425022  .00023697  00000+0  71167-3 0  9997
2 42777  97.2001 273.5211 0011067  92.2795 267.9715 15.34367232286636
MAX VALIER SAT          
1 42778U 17036P   22230.82188377  .00009782  00000+0  36158-3 0  9999
2 42778  97.2009 269.7990 0012605 103.9068 256.3575 15.27835919286425
PEGASUS                 
1 42784U 17036V   22231.11949933  .00014536  00000+0  50143-3 0  9995
2 42784  97.1950 271.0529 0011777 103.4353 256.8202 15.30012765286591
NUDTSAT                 
1 42787U 17036Y   22230.95944759  .00016894  00000+0  48836-3 0  9995
2 42787  97.1977 275.4963 0010329  91.4213 268.8216 15.35648186286681
SUCHAI                  
1 42788U 17036Z   22231.10326705  .00017238  00000+0  55798-3 0  9997
2 42788  97.1955 272.8488 0011010  98.9421 261.3068 15.32042494286772
SKCUBE                  
1 42789U 17036AA  22230.74114498  .00013644  00000+0  45489-3 0  9994
2 42789  97.1952 271.8882 0011078 100.9192 259.3297 15.31139386286609
VZLUSAT-1               
1 42790U 17036AB  22230.38699143  .00024543  00000+0  71235-3 0  9999
2 42790  97.1975 274.8906 0009739  94.9512 265.2844 15.35451131286743
ROBUSTA-1B              
1 42792U 17036AD  22230.34760500  .00016897  00000+0  55218-3 0  9999
2 42792  97.1946 272.1169 0010578 102.1121 258.1307 15.31743803286590
D-SAT                   
1 42794U 17036AF  22230.81988116  .00001816  00000+0  15719-3 0  9995
2 42794  97.4531 232.9525 0121125 235.9129 123.0550 14.92883047280785
